[{"OBJECT_NAME":"LILIUM-3","OBJECT_ID":"2025-276DJ","EPOCH":"2026-03-09T16:54:54.141120","MEAN_MOTION":15.18939749,"ECCENTRICITY":0.00011225,"INCLINATION":97.4313,"RA_OF_ASC_NODE":144.1145,"ARG_OF_PERICENTER":186.7966,"MEAN_ANOMALY":173.3253,"EPHEMERIS_TYPE":0,"CLASSIFICATION_TYPE":"U","NORAD_CAT_ID":66770,"ELEMENT_SET_NO":999,"REV_AT_EPOCH":1532,"BSTAR":0.00016352677,"MEAN_MOTION_DOT":3.348e-5,"MEAN_MOTION_DDOT":0},{"OBJECT_NAME":"OBJECT B","OBJECT_ID":"2026-023B","EPOCH":"2026-03-09T17:17:10.012128","MEAN_MOTION":15.23001134,"ECCENTRICITY":0.00195537,"INCLINATION":96.6353,"RA_OF_ASC_NODE":141.6642,"ARG_OF_PERICENTER":132.0881,"MEAN_ANOMALY":228.2024,"EPHEMERIS_TYPE":0,"CLASSIFICATION_TYPE":"U","NORAD_CAT_ID":67675,"ELEMENT_SET_NO":999,"REV_AT_EPOCH":486,"BSTAR":0.00052794729,"MEAN_MOTION_DOT":0.0001243,"MEAN_MOTION_DDOT":0}]
